OSCAR 7 (AO-7)          
1 07530U 74089B   22187.58326520 -.00000032  00000+0  89686-4 0  9990
2 07530 101.9047 167.5140 0012368   7.3422 106.0458 12.53655698179866
PHASE 3B (AO-10)        
1 14129U 83058B   22186.72680176 -.00000252  00000+0  00000+0 0  9995
2 14129  26.4378  93.3431 6006164  87.1829 335.7092  2.05871365265784
UOSAT 2 (UO-11)         
1 14781U 84021B   22187.53715247  .00000467  00000+0  62606-4 0  9990
2 14781  97.6177 174.1020 0006822 257.1577 102.8876 14.83700985 42875
LUSAT (LO-19)           
1 20442U 90005G   22187.44120319  .00000048  00000+0  34004-4 0  9996
2 20442  98.7947 152.5935 0012807 110.9733 249.2822 14.33068000695824
EYESAT A (AO-27)        
1 22825U 93061C   22187.54393207  .00000025  00000+0  27388-4 0  9999
2 22825  98.8854 218.9839 0008424   4.0276 356.0972 14.30178540500886
ITAMSAT (IO-26)         
1 22826U 93061D   22187.56252283  .00000039  00000+0  32619-4 0  9998
2 22826  98.8798 218.8810 0008697 350.0118  10.0889 14.30524977501146
RADIO ROSTO (RS-15)     
1 23439U 94085A   22187.55395126 -.00000039  00000+0  10000-3 0  9999
2 23439  64.8159 114.7225 0168116 269.2820  88.8839 11.27572692133643
JAS-2 (FO-29)           
1 24278U 96046B   22187.50981765 -.00000031  00000+0  63610-5 0  9994
2 24278  98.5149 208.5796 0349400 233.7635 123.0742 13.53116778278184
TECHSAT 1B (GO-32)      
1 25397U 98043D   22187.47359521  .00000017  00000+0  27207-4 0  9995
2 25397  98.8186 137.9929 0002306  68.8524 291.2900 14.23760055246134
ISS (ZARYA)             
1 25544U 98067A   22187.68301169  .00005411  00000+0  10327-3 0  9990
2 25544  51.6431 240.0331 0004472 340.5411 165.5537 15.49847551348208
PCSAT (NO-44)           
1 26931U 01043C   22187.53635421  .00000019  00000+0  38884-4 0  9992
2 26931  67.0518   9.1414 0007346 260.9012  99.1259 14.30713620 84137
SAUDISAT 1C (SO-50)     
1 27607U 02058C   22187.56165066  .00000255  00000+0  55546-4 0  9992
2 27607  64.5538 243.4273 0079411 290.7472  68.5134 14.76151841 51408
CUTE-1 (CO-55)          
1 27844U 03031E   22187.55915775  .00000139  00000+0  81785-4 0  9991
2 27844  98.6777 194.9562 0010865  51.5746 308.6406 14.22462453986581
CUBESAT XI-IV (CO-57)   
1 27848U 03031J   22187.45773937  .00000121  00000+0  74496-4 0  9998
2 27848  98.6823 195.3722 0010893  64.6381 295.5923 14.22018201986385
MOZHAYETS 4 (RS-22)     
1 27939U 03042A   22187.49099343  .00000370  00000+0  74279-4 0  9992
2 27939  98.1946 328.2084 0013700 143.8402 216.3734 14.67378515  3836
CUBESAT XI-V            
1 28895U 05043F   22187.30957808  .00000507  00000+0  10473-3 0  9993
2 28895  98.1091 318.3996 0017990  83.2779 277.0471 14.64371698890175
FALCONSAT-3             
1 30776U 07006E   22187.27595151  .00021901  00000+0  32230-3 0  9996
2 30776  35.4302 136.8561 0004789 258.9540 101.0654 15.54491314852518
CUTE-1.7+APD II (CO-65) 
1 32785U 08021C   22187.37305964  .00000920  00000+0  10175-3 0  9990
2 32785  97.6581 157.6232 0012919 163.8893 196.2738 14.89639792769308
DELFI-C3 (DO-64)        
1 32789U 08021G   22187.58345676  .00006470  00000+0  35810-3 0  9990
2 32789  97.3380 213.1929 0008211 252.1020 107.9317 15.14144176774822
SEEDS II (CO-66)        
1 32791U 08021J   22187.48061125  .00001849  00000+0  18400-3 0  9997
2 32791  97.6122 163.2005 0014107 122.2483 238.0106 14.92741343770117
YUBILEINY (RS-30)       
1 32953U 08025A   22187.53354115  .00000024  00000+0  10000-3 0  9993
2 32953  82.5022 172.0708 0018378 216.0162 143.9681 12.43111526640708
KKS-1 (KISEKI)          
1 33499U 09002H   22187.56263319  .00000404  00000+0  66361-4 0  9997
2 33499  98.2157  69.9236 0007656 252.3042 107.7331 14.76038537723063
SWISSCUBE               
1 35932U 09051B   22187.53795966  .00000371  00000+0  93573-4 0  9998
2 35932  98.5670  44.0067 0007524 359.1351   0.9832 14.56884608678873
BEESAT-1                
1 35933U 09051C   22187.56151394  .00000311  00000+0  80325-4 0  9998
2 35933  98.5610  45.6477 0006023  14.1642 345.9723 14.56898250679032
ITUPSAT1                
1 35935U 09051E   22187.59063452  .00000282  00000+0  75218-4 0  9992
2 35935  98.5711  45.7285 0008354  13.7175 346.4247 14.56005687678668
XIWANG-1 (HOPE-1)       
1 36122U 09072B   22187.50010340 -.00000011  00000+0  84917-4 0  9990
2 36122 100.1834 158.1617 0006867 300.9384  59.1054 13.16369944603319
JUGNU                   
1 37839U 11058B   22187.35569089  .00000346  00000+0  42380-4 0  9993
2 37839  19.9621  60.8137 0018844   5.3819 148.8792 14.12791013554817
SRMSAT                  
1 37841U 11058D   22187.59144426  .00000322  00000+0  31364-4 0  9990
2 37841  19.9710 139.2329 0011868 193.4591 325.0035 14.10758934553943
M-CUBED & EXP-1 PRIME   
1 37855U 11061F   22187.29076761  .00004436  00000+0  19788-3 0  9997
2 37855 101.7116 316.3377 0152384   5.9044 354.3922 15.12648216584081
STRAND-1                
1 39090U 13009E   22187.53967733  .00000089  00000+0  45822-4 0  9998
2 39090  98.4039  25.1771 0008373 207.8629 152.2109 14.35299255490136
SOMP                    
1 39134U 13015E   22187.53476904  .00008218  00000+0  29354-3 0  9992
2 39134  64.8627 359.2482 0035237 276.6475  83.0646 15.28897266509774
BEESAT-3                
1 39135U 13015F   22187.55269722  .00005812  00000+0  24142-3 0  9990
2 39135  64.8667  35.6951 0038398 282.7123  76.9715 15.24154702509027
BEESAT-2                
1 39136U 13015G   22187.02223079  .00005755  00000+0  25002-3 0  9990
2 39136  64.8750  45.6861 0017381 297.3203  62.6156 15.23158482508749
ZACUBE-1 (TSHEPISOSAT)  
1 39417U 13066B   22187.46999792  .00001214  00000+0  15378-3 0  9999
2 39417  97.6372 158.1091 0057339 344.0169  15.9233 14.82399475465942
GOMX-1                  
1 39430U 13066Q   22187.77834573  .00000839  00000+0  15804-3 0  9999
2 39430  97.8088  93.8740 0149013 344.6173  15.0523 14.60231823459114
CUBEBUG-2 (LO-74)       
1 39440U 13066AA  22187.42424327  .00001144  00000+0  16078-3 0  9998
2 39440  97.7269 144.1839 0080298  70.2745 290.7105 14.77047965463089
FUNCUBE-1 (AO-73)       
1 39444U 13066AE  22187.47274281  .00001396  00000+0  17163-3 0  9994
2 39444  97.6251 160.5196 0055855 332.0410  27.7806 14.83494309464341
UWE-3                   
1 39446U 13066AG  22187.48084657  .00001246  00000+0  16638-3 0  9993
2 39446  97.6863 150.7223 0069521  28.5009 331.9977 14.79615648463276
SPROUT                  
1 39770U 14029E   22187.57580828  .00003563  00000+0  36543-3 0  9995
2 39770  97.9446 304.6345 0008916  35.3015 324.8796 14.91061503440516
UNISAT-6                
1 40012U 14033C   22187.51546173  .00000818  00000+0  12560-3 0  9993
2 40012  97.6619  14.4601 0058968  97.1873 263.6046 14.74945587432790
DUCHIFAT-1              
1 40021U 14033M   22187.44199373  .00001754  00000+0  17449-3 0  9992
2 40021  98.0133 137.9890 0012174 346.0348  14.0532 14.92963362437535
QB50P1                  
1 40025U 14033R   22187.45670045  .00001420  00000+0  15093-3 0  9990
2 40025  97.9608 125.0047 0012304   2.3101 357.8171 14.90563147436597
NUDT-PHONESAT           
1 40900U 15049B   22187.34734083  .00017023  00000+0  47637-3 0  9996
2 40900  97.3993 205.4315 0008348 203.1301 281.9340 15.36687210377517
ZDPS 2A                 
1 40901U 15049C   22187.53712301  .00006260  00000+0  25847-3 0  9997
2 40901  97.4587 196.2421 0009583 280.0001  80.0155 15.24346435376368
ZDPS 2B                 
1 40902U 15049D   22187.51629019  .00006785  00000+0  27812-3 0  9995
2 40902  97.4657 193.9164 0009568 278.1208 202.3233 15.24559463376335
XW-2A                   
1 40903U 15049E   22187.46702653  .00015996  00000+0  24686-3 0  9996
2 40903  97.1772 246.0342 0010675  59.1066  65.1008 15.54151709382212
KAITUO 1A               
1 40904U 15049F   22187.50016459  .00002299  00000+0  11619-3 0  9998
2 40904  97.4940 189.8332 0012341 310.0228 209.4149 15.18026217375752
2015-049G               
1 40905U 15049G   22187.46176698  .00002088  00000+0  11016-3 0  9993
2 40905  97.5135 186.9868 0013668 312.6210 207.2339 15.16603745375497
XW-2C                   
1 40906U 15049H   22187.51240731  .00003011  00000+0  14600-3 0  9999
2 40906  97.4926 190.7732 0012074 296.0864 216.1831 15.19231248375818
XW-2D                   
1 40907U 15049J   22187.45992726  .00003577  00000+0  16957-3 0  9995
2 40907  97.4909 190.7175 0011326 292.3738 211.4854 15.19902299375857
LILACSAT-2              
1 40908U 15049K   22187.51454086  .00001603  00000+0  87129-4 0  9993
2 40908  97.5166 187.9093 0014049 315.7222 202.2882 15.15881880375378
XW-2E                   
1 40909U 15049L   22187.45860061  .00005581  00000+0  23450-3 0  9996
2 40909  97.4640 195.2837 0009891 268.4203 235.0083 15.23798316376306
XW-2F                   
1 40910U 15049M   22187.46175992  .00005516  00000+0  23539-3 0  9997
2 40910  97.4718 194.4260 0010970 269.7143 250.8996 15.23270274376072
XW-2B                   
1 40911U 15049N   22187.48788649  .00003510  00000+0  16700-3 0  9993
2 40911  97.4904 191.3412 0011151 293.1588 218.5727 15.19788373375746
KAITUO 1B               
1 40912U 15049P   22187.49231951  .00006351  00000+0  24651-3 0  9994
2 40912  97.4353 198.8045 0011155 228.8459 291.1386 15.26396027376653
TIANWANG 1A (TW-1A)     
1 40928U 15051D   22187.34591495  .00030943  00000+0  36812-3 0  9996
2 40928  97.0364 209.8475 0004726 330.3492 157.8485 15.61066895381188
LAPAN-A2                
1 40931U 15052B   22186.68482257  .00000945  00000+0  42261-4 0  9997
2 40931   6.0020  39.0334 0013217  66.5657 293.6064 14.76826311366046
E-ST@R-II               
1 41459U 16025D   22187.46246114  .00009141  00000+0  39456-3 0  9999
2 41459  98.1878 354.0269 0144595 204.3982 155.0364 15.13733685340374
AAUSAT 4                
1 41460U 16025E   22187.43854465  .00016041  00000+0  60815-3 0  9992
2 41460  98.1794   0.3736 0124887 180.0081 180.1144 15.19894337340828
